GSAT0101 (PRN E11)      
1 37846U 11060A   17278.49112396  .00000001  00000-0  00000+0 0  9996
2 37846  55.9129  68.6261 0001757   8.9188 351.0850  1.70473505 37097
GSAT0102 (PRN E12)      
1 37847U 11060B   17279.52606860 -.00000002  00000-0  00000+0 0  9998
2 37847  55.9144  68.5963 0002280 313.6682   5.8282  1.70475782 37104
GSAT0103 (PRN E19)      
1 38857U 12055A   17279.12048002  .00000009  00000-0  00000+0 0  9995
2 38857  54.9044 188.9635 0003034 248.4421 111.5735  1.70473759 31026
GSAT0104 (PRN E20)      
1 38858U 12055B   17278.46815829  .00000006  00000-0  00000+0 0  9998
2 38858  54.9053 188.9804 0001988 253.3694 106.6518  1.70473841 30955
GSAT0201 (PRN E18)      
1 40128U 14050A   17279.63537575 -.00000057  00000-0  00000+0 0  9994
2 40128  50.3663  40.7469 1632536  67.3809 308.9995  1.85519519 21346
GSAT0202 (PRN E14)      
1 40129U 14050B   17279.90262942 -.00000058  00000-0  00000+0 0  9999
2 40129  50.4187  39.7372 1633156  68.3693 308.1635  1.85520238 21546
GSAT0203 (PRN E26)      
1 40544U 15017A   17277.68518832  .00000003  00000-0  00000-0 0  9999
2 40544  55.7016  68.9227 0002616 200.9453 159.0492  1.70475269 15035
GSAT0204 (PRN E22)      
1 40545U 15017B   17278.64129263  .00000001  00000-0  00000+0 0  9990
2 40545  55.7089  68.9077 0002981 150.4726 209.5449  1.70475275 15711
GSAT0205 (PRN E24)      
1 40889U 15045A   17279.46842569 -.00000004  00000-0  00000-0 0  9999
2 40889  56.9334 309.0983 0002270 303.8389  56.2025  1.70474817 12875
GSAT0206 (PRN E30)      
1 40890U 15045B   17279.68830880 -.00000005  00000-0  00000+0 0  9998
2 40890  56.9323 309.0895 0002294 262.6298  97.4058  1.70474844 12901
GSAT0209 (PRN E09)      
1 41174U 15079A   17279.27376780  .00000010  00000-0  00000+0 0  9995
2 41174  54.9174 188.6480 0004695 298.0273  61.9751  1.70473050 11210
GSAT0208 (PRN E08)      
1 41175U 15079B   17275.97413373 -.00000006  00000-0  00000+0 0  9995
2 41175  54.9163 188.7401 0003887 297.0085  62.9790  1.70473092 11169
GSAT0211 (PRN E02)      
1 41549U 16030A   17280.20059752 -.00000007  00000-0  00000+0 0  9998
2 41549  57.0720 308.8320 0004503 263.6697  96.3374  1.70474601  8539
GSAT0210 (PRN E01)      
1 41550U 16030B   17276.97432792  .00000002  00000-0  00000-0 0  9993
2 41550  57.0736 308.9219 0004920 242.1176 117.9050  1.70474741  8483
GSAT0207 (PRN E07)      
1 41859U 16069A   17280.15397858  .00000012  00000-0  00000+0 0  9995
2 41859  54.5767 189.2346 0004323 285.4305  74.5758  1.70472986  5505
GSAT0212 (PRN E03)      
1 41860U 16069B   17270.03534561 -.00000014  00000-0  00000+0 0  9990
2 41860  54.5751 189.5174 0003713 302.2036  57.7832  1.70473013  5354
GSAT0213 (PRN E04)      
1 41861U 16069C   17275.68112951 -.00000008  00000-0  00000+0 0  9995
2 41861  54.5772 189.3621 0003437 260.3225  99.6631  1.70473163  5448
GSAT0214 (PRN E05)      
1 41862U 16069D   17277.00098941 -.00000002  00000-0  00000+0 0  9990
2 41862  54.5753 189.3220 0002664 265.0905  94.9106  1.70472950  5461
